[{"OBJECT_NAME":"STARLINK-5972","OBJECT_ID":"2023-058AX","EPOCH":"2026-03-09T22:26:50.453952","MEAN_MOTION":15.05630926,"ECCENTRICITY":0.00018776,"INCLINATION":97.6041,"RA_OF_ASC_NODE":71.4638,"ARG_OF_PERICENTER":95.6991,"MEAN_ANOMALY":264.445,"EPHEMERIS_TYPE":0,"CLASSIFICATION_TYPE":"U","NORAD_CAT_ID":56362,"ELEMENT_SET_NO":999,"REV_AT_EPOCH":15823,"BSTAR":-0.00010329263,"MEAN_MOTION_DOT":-1.55e-5,"MEAN_MOTION_DDOT":0},{"OBJECT_NAME":"PSLV DEB","OBJECT_ID":"2001-049AH","EPOCH":"2026-03-09T23:39:21.767904","MEAN_MOTION":14.98984537,"ECCENTRICITY":0.00513683,"INCLINATION":98.1237,"RA_OF_ASC_NODE":87.2704,"ARG_OF_PERICENTER":48.4953,"MEAN_ANOMALY":9.0267,"EPHEMERIS_TYPE":0,"CLASSIFICATION_TYPE":"U","NORAD_CAT_ID":27089,"ELEMENT_SET_NO":999,"REV_AT_EPOCH":31452,"BSTAR":0.000212521,"MEAN_MOTION_DOT":2.577e-5,"MEAN_MOTION_DDOT":0}]
